NORAD_CAT_ID,OBJECT_NAME,OBJECT_TYPE,EPOCH,MEAN_MOTION,ECCENTRICITY,INCLINATION,RA_OF_ASC_NODE,ARG_OF_PERICENTER,MEAN_ANOMALY,BSTAR,MEAN_MOTION_DOT,MEAN_MOTION_DDOT,TLE_LINE0,TLE_LINE1,TLE_LINE2,SEMIMAJOR_AXIS,PERIOD,APOGEE,PERIGEE,DECAYED
55952.0,STARLINK-5893,PAYLOAD,2023-08-27 17:01:19,15.69921553,0.0003051,69.9978,82.9462,266.9078,93.1769,1.6694e-05,1.795e-05,0.0,0 STARLINK-5893,1 55952U 23037AQ  23239.70925364  .00001795  00000-0  16694-4 0  9998,2 55952  69.9978  82.9462 0003051 266.9078  93.1769 15.69921553 26104,6737.258,91.724,361.179,357.068,0.0
55952.0,STARLINK-5893,PAYLOAD,2023-08-28 06:47:06,15.69917482,0.0003437,69.997,81.3326,269.3483,90.7319,-6.3137e-07,-2.89e-06,0.0,0 STARLINK-5893,1 55952U 23037AQ  23240.28271132 -.00000289  00000-0 -63137-6 0  9995,2 55952  69.9970  81.3326 0003437 269.3483  90.7319 15.69917482 26192,6737.27,91.725,361.451,356.819,0.0
55952.0,STARLINK-5893,PAYLOAD,2023-08-28 15:57:36,15.69931926,0.0003598,69.9957,80.2587,267.4491,92.6293,-1.158e-08,-2.14e-06,0.0,0 STARLINK-5893,1 55952U 23037AQ  23240.66500268 -.00000214  00000-0 -11580-7 0  9996,2 55952  69.9957  80.2587 0003598 267.4491  92.6293 15.69931926 26258,6737.229,91.724,361.518,356.67,0.0
55952.0,STARLINK-5893,PAYLOAD,2023-08-29 16:25:38,15.69922641,0.0003187,69.9977,77.3929,270.7294,89.3537,5.3152e-06,4.26e-06,0.0,0 STARLINK-5893,1 55952U 23037AQ  23241.68447565  .00000426  00000-0  53152-5 0  9991,2 55952  69.9977  77.3929 0003187 270.7294  89.3537 15.69922641 26415,6737.255,91.724,361.267,356.973,0.0
55952.0,STARLINK-5893,PAYLOAD,2023-08-29 17:57:23,15.69923294,0.0003448,69.9968,77.2127,277.1434,82.937,6.5576e-06,5.76e-06,0.0,0 STARLINK-5893,1 55952U 23037AQ  23241.74819195  .00000576  00000-0  65576-5 0  9999,2 55952  69.9968  77.2127 0003448 277.1434  82.9370 15.69923294 26083,6737.253,91.724,361.441,356.795,0.0
55952.0,STARLINK-5893,PAYLOAD,2023-08-29 22:32:45,15.69834962,0.0004112,69.9963,76.6741,263.467,96.6057,-9.4971e-05,-0.00011577,0.0,0 STARLINK-5893,1 55952U 23037AQ  23241.93941611 -.00011577  00000-0 -94971-4 0  9994,2 55952  69.9963  76.6741 0004112 263.4670  96.6057 15.69834962 26450,6737.506,91.729,362.142,356.601,0.0
55952.0,STARLINK-5893,PAYLOAD,2023-08-30 13:48:10,15.71694463,0.0013581,69.9976,74.8804,251.2281,108.7442,0.001947,0.00260903,0.0,0 STARLINK-5893,1 55952U 23037AQ  23242.57512524  .00260903  00000-0  19470-2 0  9998,2 55952  69.9976  74.8804 0013581 251.2281 108.7442 15.71694463 26554,6732.191,91.621,363.199,344.913,0.0
55952.0,STARLINK-5893,PAYLOAD,2023-08-31 06:00:00,15.6704944,0.0003474,69.9987,72.9989,269.3805,288.3931,-0.0095008,-0.00925116,0.0,0 STARLINK-5893,1 55952U 23037AQ  23243.25001157 -.00925116  00000-0 -95008-2 0  9996,2 55952  69.9987  72.9989 0003474 269.3805 288.3931 15.67049440 26654,6745.488,91.892,369.696,365.01,0.0
55952.0,STARLINK-5893,PAYLOAD,2023-08-31 22:00:01,15.65731228,0.0003606,69.9991,71.1339,272.5562,83.4908,-0.0095892,-0.00888654,0.0,0 STARLINK-5893,1 55952U 23037AQ  23243.91668981 -.00888654  00000-0 -95892-2 0  9999,2 55952  69.9991  71.1339 0003606 272.5562  83.4908 15.65731228  5905,6749.274,91.97,373.572,368.705,0.0
55952.0,STARLINK-5893,PAYLOAD,2023-09-01 14:00:01,15.64457759,0.0003443,69.9992,69.2728,268.0938,242.9471,-0.010603,-0.00929759,0.0,0 STARLINK-5893,1 55952U 23037AQ  23244.58334491 -.00929759  00000-0 -10603-1 0  9997,2 55952  69.9992  69.2728 0003443 268.0938 242.9471 15.64457759 26860,6752.936,92.045,377.126,372.476,0.0
55952.0,STARLINK-5893,PAYLOAD,2023-09-01 22:00:00,15.63771395,0.0003487,69.999,68.3435,273.3347,314.0865,-0.010293,-0.00882678,0.0,0 STARLINK-5893,1 55952U 23037AQ  23244.91667824 -.00882678  00000-0 -10293-1 0  9996,2 55952  69.9990  68.3435 0003487 273.3347 314.0865 15.63771395  6066,6754.912,92.085,379.132,374.421,0.0
55952.0,STARLINK-5893,PAYLOAD,2023-09-02 14:00:01,15.62503911,0.0003642,69.9996,66.4879,269.2909,108.4925,-0.011471,-0.00931166,0.0,0 STARLINK-5893,1 55952U 23037AQ  23245.58334491 -.00931166  00000-0 -11471-1 0  9997,2 55952  69.9996  66.4879 0003642 269.2909 108.4925 15.62503911  5971,6758.564,92.16,382.89,377.968,0.0
55952.0,STARLINK-5893,PAYLOAD,2023-09-02 22:00:00,15.61810908,0.0003609,69.9996,65.5613,276.4074,175.4132,-0.01103,-0.00876481,0.0,0 STARLINK-5893,1 55952U 23037AQ  23245.91667824 -.00876481  00000-0 -11030-1 0  9992,2 55952  69.9996  65.5613 0003609 276.4074 175.4132 15.61810908  6020,6760.563,92.201,384.868,379.988,0.0
55952.0,STARLINK-5893,PAYLOAD,2023-09-03 14:00:01,15.60551851,0.0003461,69.9997,63.7112,267.5385,329.948,-0.012489,-0.00938934,0.0,0 STARLINK-5893,1 55952U 23037AQ  23246.58334491 -.00938934  00000-0 -12489-1 0  9998,2 55952  69.9997  63.7112 0003461 267.5385 329.9480 15.60551851 27176,6764.199,92.275,388.405,383.723,0.0
55952.0,STARLINK-5893,PAYLOAD,2023-09-04 14:00:01,15.58596644,0.0003569,70.0003,60.943,272.0894,178.0629,-0.013556,-0.00945157,0.0,0 STARLINK-5893,1 55952U 23037AQ  23247.58334491 -.00945157  00000-0 -13556-1 0  9990,2 55952  70.0003  60.9430 0003569 272.0894 178.0629 15.58596644  6018,6769.855,92.391,394.136,389.304,0.0
55952.0,STARLINK-5893,PAYLOAD,2023-09-04 22:00:00,15.57892553,0.000353,70.0001,60.022,277.0051,242.4911,-0.01267,-0.00867316,0.0,0 STARLINK-5893,1 55952U 23037AQ  23247.91667824 -.00867316  00000-0 -12670-1 0  9992,2 55952  70.0001  60.0220 0003530 277.0051 242.4911 15.57892553 27382,6771.894,92.433,396.15,391.369,0.0
55952.0,STARLINK-5893,PAYLOAD,2023-09-05 14:00:01,15.56638066,0.0003652,70.0003,58.1826,269.6661,26.1097,-0.014553,-0.00942813,0.0,0 STARLINK-5893,1 55952U 23037AQ  23248.58334491 -.00942813  00000-0 -14553-1 0  9995,2 55952  70.0003  58.1826 0003652 269.6661  26.1097 15.56638066 27493,6775.532,92.507,399.872,394.923,0.0
55952.0,STARLINK-5893,PAYLOAD,2023-09-06 14:00:01,15.54681159,0.0003464,70.0002,55.4307,274.1309,220.2292,-0.015694,-0.00945249,0.0,0 STARLINK-5893,1 55952U 23037AQ  23249.58334491 -.00945249  00000-0 -15694-1 0  9999,2 55952  70.0002  55.4307 0003464 274.1309 220.2292 15.54681159 27647,6781.217,92.623,405.431,400.733,0.0
55952.0,STARLINK-5893,PAYLOAD,2023-09-06 22:00:00,15.53988293,0.0003492,69.9998,54.515,278.2433,280.7614,-0.014878,-0.0087981,0.0,0 STARLINK-5893,1 55952U 23037AQ  23249.91667824 -.00879810  00000-0 -14878-1 0  9998,2 55952  69.9998  54.5150 0003492 278.2433 280.7614 15.53988293  6024,6783.232,92.665,407.466,402.728,0.0
55952.0,STARLINK-5893,PAYLOAD,2023-09-07 06:00:00,15.53324435,0.000343,70.0,53.6002,272.4528,350.4048,-0.015121,-0.00873363,0.0,0 STARLINK-5893,1 55952U 23037AQ  23250.25001157 -.00873363  00000-0 -15121-1 0  9997,2 55952  70.0000  53.6002 0003430 272.4528 350.4048 15.53324435 27751,6785.165,92.704,409.357,404.702,0.0
55952.0,STARLINK-5893,PAYLOAD,2023-09-07 14:00:01,15.52722592,0.0003576,70.0002,52.6864,272.9338,52.9703,-0.016777,-0.00954463,0.0,0 STARLINK-5893,1 55952U 23037AQ  23250.58334491 -.00954463  00000-0 -16777-1 0  9992,2 55952  70.0002  52.6864 0003576 272.9338  52.9703 15.52722592  5925,6786.918,92.74,411.21,406.356,0.0
55952.0,STARLINK-5893,PAYLOAD,2023-09-07 22:00:00,15.52011917,0.000362,69.9998,51.7734,278.9528,109.2539,-0.015153,-0.00837842,0.0,0 STARLINK-5893,1 55952U 23037AQ  23250.91667824 -.00837842  00000-0 -15153-1 0  9996,2 55952  69.9998  51.7734 0003620 278.9528 109.2539 15.52011917 27850,6788.99,92.783,413.312,408.397,0.0
55952.0,STARLINK-5893,PAYLOAD,2023-09-08 06:00:02,15.51221955,0.0003527,69.9998,50.8613,272.4713,177.3176,-2.6069e-05,-1.696e-05,0.0,0 STARLINK-5893,1 55952U 23037AQ  23251.25002315 -.00001696  00000-0 -26069-4 0  9993,2 55952  69.9998  50.8613 0003527 272.4713 177.3176 15.51221955 27900,6791.294,92.83,415.555,410.764,0.0
55952.0,STARLINK-5893,PAYLOAD,2023-09-08 14:00:01,15.51249842,0.0003499,70.0,49.9496,273.6196,237.0089,-0.00068539,-0.00040258,0.0,0 STARLINK-5893,1 55952U 23037AQ  23251.58334491 -.00040258  00000-0 -68539-3 0  9996,2 55952  70.0000  49.9496 0003499 273.6196 237.0089 15.51249842  6023,6791.213,92.828,415.454,410.702,0.0
55952.0,STARLINK-5893,PAYLOAD,2023-09-08 22:00:00,15.51228543,0.0003461,69.9997,49.0384,278.0625,293.4953,-0.00016334,-9.749e-05,0.0,0 STARLINK-5893,1 55952U 23037AQ  23251.91667824 -.00009749  00000-0 -16334-3 0  9998,2 55952  69.9997  49.0384 0003461 278.0625 293.4953 15.51228543  6028,6791.275,92.83,415.49,410.79,0.0
55952.0,STARLINK-5893,PAYLOAD,2023-09-09 06:00:00,15.51345393,0.0003464,69.9999,48.1271,270.3168,2.148,-0.013331,-0.00718986,0.0,0 STARLINK-5893,1 55952U 23037AQ  23252.25001157 -.00718986  00000-0 -13331-1 0  9999,2 55952  69.9999  48.1271 0003464 270.3168   2.1480 15.51345393 28066,6790.934,92.823,415.151,410.447,0.0
55952.0,STARLINK-5893,PAYLOAD,2023-09-09 14:00:01,15.50846447,0.000355,70.0,47.216,271.9313,61.2821,-0.018108,-0.00962271,0.0,0 STARLINK-5893,1 55952U 23037AQ  23252.58334491 -.00962271  00000-0 -18108-1 0  9990,2 55952  70.0000  47.2160 0003550 271.9313  61.2821 15.50846447 28110,6792.39,92.853,416.667,411.844,0.0
55952.0,STARLINK-5893,PAYLOAD,2023-09-10 06:00:00,15.49478553,0.0003498,69.9997,45.3959,274.0189,178.4906,-0.016973,-0.00855634,0.0,0 STARLINK-5893,1 55952U 23037AQ  23253.25001157 -.00855634  00000-0 -16973-1 0  9997,2 55952  69.9997  45.3959 0003498 274.0189 178.4906 15.49478553 28216,6796.387,92.934,420.63,415.875,0.0
55952.0,STARLINK-5893,PAYLOAD,2023-09-10 14:00:01,15.48887142,0.0003436,70.0,44.4872,274.6878,236.2652,-0.019322,-0.00958188,0.0,0 STARLINK-5893,1 55952U 23037AQ  23253.58334491 -.00958188  00000-0 -19322-1 0  9992,2 55952  70.0000  44.4872 0003436 274.6878 236.2652 15.48887142  6013,6798.117,92.97,422.318,417.647,0.0
55952.0,STARLINK-5893,PAYLOAD,2023-09-10 22:00:00,15.48203561,0.0003386,69.9996,43.5794,277.4406,291.2067,-0.018684,-0.00908695,0.0,0 STARLINK-5893,1 55952U 23037AQ  23253.91667824 -.00908695  00000-0 -18684-1 0  9996,2 55952  69.9996  43.5794 0003386 277.4406 291.2067 15.48203561 28314,6800.118,93.011,424.286,419.681,0.0
